{"type": "FeatureCollection", "features": [ {"type": "Feature", "properties": {"norad_id": 38779, "name": "GSAT-10 (GAGAN/PRN 128)", "group": "gnss", "lat": 0.010470511884707207, "lon": -25.074688869983127, "alt_km": 35793.66656799312, "timestamp": "2025-12-09T11:33:55.041239+00:00", "meta": {"OBJECT_NAME": "GSAT-10 (GAGAN/PRN 128)", "OBJECT_ID": "2012-051B", "EPOCH": "2025-12-09T03:41:43.351008", "MEAN_MOTION": 1.00273317, "ECCENTRICITY": 0.000217, "INCLINATION": 0.0164, "RA_OF_ASC_NODE": 265.5862, "ARG_OF_PERICENTER": 220.5597, "MEAN_ANOMALY": 90.4212, "EPHEMERIS_TYPE": 0, "CLASSIFICATION_TYPE": "U", "NORAD_CAT_ID": 38779, "ELEMENT_SET_NO": 999, "REV_AT_EPOCH": 4819, "BSTAR": 0, "MEAN_MOTION_DOT": -1.63e-06, "MEAN_MOTION_DDOT": 0}, "tle": {"line1": "1 38779U 12051B   25343.15397397 -.00000163  00000+0  00000+0 0  9993", "line2": "2 38779   0.0164 265.5862 0002170 220.5597  90.4212  1.00273317 48195"}}, "geometry": {"type": "Point", "coordinates": [-25.074688869983127, 0.010470511884707207]}}, {"type": "Feature", "properties": {"norad_id": 38833, "name": "GPS BIIF-3  (PRN 24)", "group": "gnss", "lat": 53.53312137305246, "lon": -118.85863038328324, "alt_km": 19754.606853092722, "timestamp": "2025-12-09T11:33:55.041251+00:00", "meta": {"OBJECT_NAME": "GPS BIIF-3  (PRN 24)", "OBJECT_ID": "2012-053A", "EPOCH": "2025-12-08T20:42:06.969024", "MEAN_MOTION": 2.00564932, "ECCENTRICITY": 0.0175665, "INCLINATION": 53.5568, "RA_OF_ASC_NODE": 151.3974, "ARG_OF_PERICENTER": 63.9455, "MEAN_ANOMALY": 297.8485, "EPHEMERIS_TYPE": 0, "CLASSIFICATION_TYPE": "U", "NORAD_CAT_ID": 38833, "ELEMENT_SET_NO": 999, "REV_AT_EPOCH": 9562, "BSTAR": 0, "MEAN_MOTION_DOT": 5.9e-07, "MEAN_MOTION_DDOT": 0}, "tle": {"line1": "1 38833U 12053A   25342.86258066  .00000059  00000+0  00000+0 0  9995", "line2": "2 38833  53.5568 151.3974 0175665  63.9455 297.8485  2.00564932 95627"}}, "geometry": {"type": "Point", "coordinates": [-118.85863038328324, 53.53312137305246]}}, {"type": "Feature", "properties": {"norad_id": 38857, "name": "GSAT0103 (GALILEO-FM3)", "group": "gnss", "lat": 29.863055443171277, "lon": 129.80530555631495, "alt_km": 23223.26258848886, "timestamp": "2025-12-09T11:33:55.041262+00:00", "meta": {"OBJECT_NAME": "GSAT0103 (GALILEO-FM3)", "OBJECT_ID": "2012-055A", "EPOCH": "2025-12-06T11:43:28.953984", "MEAN_MOTION": 1.7047325, "ECCENTRICITY": 0.00024686, "INCLINATION": 55.6879, "RA_OF_ASC_NODE": 106.8382, "ARG_OF_PERICENTER": 267.747, "MEAN_ANOMALY": 92.1776, "EPHEMERIS_TYPE": 0, "CLASSIFICATION_TYPE": "U", "NORAD_CAT_ID": 38857, "ELEMENT_SET_NO": 999, "REV_AT_EPOCH": 8172, "BSTAR": 0, "MEAN_MOTION_DOT": 7e-08, "MEAN_MOTION_DDOT": 0}, "tle": {"line1": "1 38857U 12055A   25340.48852956  .00000007  00000+0  00000+0 0  9990", "line2": "2 38857  55.6879 106.8382 0002468 267.7470  92.1776  1.70473250 81723"}}, "geometry": {"type": "Point", "coordinates": [129.80530555631495, 29.863055443171277]}}, {"type": "Feature", "properties": {"norad_id": 38953, "name": "BEIDOU-2 G6 (C02)", "group": "gnss", "lat": -3.8905576202679555, "lon": -24.081714797828212, "alt_km": 35759.602147410194, "timestamp": "2025-12-09T11:33:55.041274+00:00", "meta": {"OBJECT_NAME": "BEIDOU-2 G6 (C02)", "OBJECT_ID": "2012-059A", "EPOCH": "2025-12-08T20:51:04.199040", "MEAN_MOTION": 1.00269836, "ECCENTRICITY": 0.00074931, "INCLINATION": 3.9388, "RA_OF_ASC_NODE": 75.5346, "ARG_OF_PERICENTER": 289.1403, "MEAN_ANOMALY": 109.993, "EPHEMERIS_TYPE": 0, "CLASSIFICATION_TYPE": "U", "NORAD_CAT_ID": 38953, "ELEMENT_SET_NO": 999, "REV_AT_EPOCH": 4800, "BSTAR": 0, "MEAN_MOTION_DOT": -1.74e-06, "MEAN_MOTION_DDOT": 0}, "tle": {"line1": "1 38953U 12059A   25342.86879860 -.00000174  00000+0  00000+0 0  9994", "line2": "2 38953   3.9388  75.5346 0007493 289.1403 109.9930  1.00269836 48009"}}, "geometry": {"type": "Point", "coordinates": [-24.081714797828212, -3.8905576202679555]}}, {"type": "Feature", "properties": {"norad_id": 38977, "name": "LUCH 5B (SDCM/PRN 125)", "group": "gnss", "lat": -0.6888262665010986, "lon": -124.45558000415605, "alt_km": 35755.62221649968, "timestamp": "2025-12-09T11:33:55.041286+00:00", "meta": {"OBJECT_NAME": "LUCH 5B (SDCM/PRN 125)", "OBJECT_ID": "2012-061A", "EPOCH": "2025-12-08T10:06:12.360096", "MEAN_MOTION": 1.00272234, "ECCENTRICITY": 0.00072728, "INCLINATION": 10.0716, "RA_OF_ASC_NODE": 51.747, "ARG_OF_PERICENTER": 191.5954, "MEAN_ANOMALY": 329.292, "EPHEMERIS_TYPE": 0, "CLASSIFICATION_TYPE": "U", "NORAD_CAT_ID": 38977, "ELEMENT_SET_NO": 999, "REV_AT_EPOCH": 4769, "BSTAR": 0, "MEAN_MOTION_DOT": -1.39e-06, "MEAN_MOTION_DDOT": 0}, "tle": {"line1": "1 38977U 12061A   25342.42097639 -.00000139  00000+0  00000+0 0  9992", "line2": "2 38977  10.0716  51.7470 0007272 191.5954 329.2920  1.00272234 47691"}}, "geometry": {"type": "Point", "coordinates": [-124.45558000415605, -0.6888262665010986]}}, {"type": "Feature", "properties": {"norad_id": 39155, "name": "COSMOS 2485 (747)", "group": "gnss", "lat": 54.399027124168036, "lon": -139.9206373327866, "alt_km": 19147.577527820344, "timestamp": "2025-12-09T11:33:55.041297+00:00", "meta": {"OBJECT_NAME": "COSMOS 2485 (747)", "OBJECT_ID": "2013-019A", "EPOCH": "2025-12-08T20:38:39.480288", "MEAN_MOTION": 2.13102846, "ECCENTRICITY": 0.00245424, "INCLINATION": 65.3114, "RA_OF_ASC_NODE": 79.9979, "ARG_OF_PERICENTER": 229.0903, "MEAN_ANOMALY": 130.7128, "EPHEMERIS_TYPE": 0, "CLASSIFICATION_TYPE": "U", "NORAD_CAT_ID": 39155, "ELEMENT_SET_NO": 999, "REV_AT_EPOCH": 9822, "BSTAR": 0, "MEAN_MOTION_DOT": -1.1e-07, "MEAN_MOTION_DDOT": 0}, "tle": {"line1": "1 39155U 13019A   25342.86017917 -.00000011  00000+0  00000+0 0  9993", "line2": "2 39155  65.3114  79.9979 0024542 229.0903 130.7128  2.13102846 98227"}}, "geometry": {"type": "Point", "coordinates": [-139.9206373327866, 54.399027124168036]}}, {"type": "Feature", "properties": {"norad_id": 39166, "name": "GPS BIIF-4  (PRN 27)", "group": "gnss", "lat": -6.237764805950148, "lon": 101.13068587268091, "alt_km": 20456.797689608597, "timestamp": "2025-12-09T11:33:55.041309+00:00", "meta": {"OBJECT_NAME": "GPS BIIF-4  (PRN 27)", "OBJECT_ID": "2013-023A", "EPOCH": "2025-12-08T05:28:17.877216", "MEAN_MOTION": 2.00565078, "ECCENTRICITY": 0.01376231, "INCLINATION": 54.656, "RA_OF_ASC_NODE": 276.7517, "ARG_OF_PERICENTER": 48.5653, "MEAN_ANOMALY": 312.6225, "EPHEMERIS_TYPE": 0, "CLASSIFICATION_TYPE": "U", "NORAD_CAT_ID": 39166, "ELEMENT_SET_NO": 999, "REV_AT_EPOCH": 9205, "BSTAR": 0, "MEAN_MOTION_DOT": -4.1e-07, "MEAN_MOTION_DDOT": 0}, "tle": {"line1": "1 39166U 13023A   25342.22798469 -.00000041  00000+0  00000+0 0  9991", "line2": "2 39166  54.6560 276.7517 0137623  48.5653 312.6225  2.00565078 92051"}}, "geometry": {"type": "Point", "coordinates": [101.13068587268091, -6.237764805950148]}}, {"type": "Feature", "properties": {"norad_id": 39199, "name": "IRNSS-1A", "group": "gnss", "lat": -30.34805993199007, "lon": -57.698447865702775, "alt_km": 35735.164260637284, "timestamp": "2025-12-09T11:33:55.041320+00:00", "meta": {"OBJECT_NAME": "IRNSS-1A", "OBJECT_ID": "2013-034A", "EPOCH": "2025-12-02T19:49:26.431104", "MEAN_MOTION": 1.00279053, "ECCENTRICITY": 0.00216608, "INCLINATION": 35.2852, "RA_OF_ASC_NODE": 66.6964, "ARG_OF_PERICENTER": 185.4059, "MEAN_ANOMALY": 172.3398, "EPHEMERIS_TYPE": 0, "CLASSIFICATION_TYPE": "U", "NORAD_CAT_ID": 39199, "ELEMENT_SET_NO": 999, "REV_AT_EPOCH": 4539, "BSTAR": 0, "MEAN_MOTION_DOT": 6.5e-07, "MEAN_MOTION_DDOT": 0}, "tle": {"line1": "1 39199U 13034A   25336.82600036  .00000065  00000+0  00000+0 0  9995", "line2": "2 39199  35.2852  66.6964 0021660 185.4059 172.3398  1.00279053 45393"}}, "geometry": {"type": "Point", "coordinates": [-57.698447865702775, -30.34805993199007]}}, {"type": "Feature", "properties": {"norad_id": 39533, "name": "GPS BIIF-5  (PRN 30)", "group": "gnss", "lat": -6.7865578412751315, "lon": -17.916923869701986, "alt_km": 20016.419563292373, "timestamp": "2025-12-09T11:33:55.041351+00:00", "meta": {"OBJECT_NAME": "GPS BIIF-5  (PRN 30)", "OBJECT_ID": "2014-008A", "EPOCH": "2025-12-08T17:17:53.714976", "MEAN_MOTION": 2.00574163, "ECCENTRICITY": 0.0079112, "INCLINATION": 53.6309, "RA_OF_ASC_NODE": 157.0886, "ARG_OF_PERICENTER": 226.4438, "MEAN_ANOMALY": 132.9028, "EPHEMERIS_TYPE": 0, "CLASSIFICATION_TYPE": "U", "NORAD_CAT_ID": 39533, "ELEMENT_SET_NO": 999, "REV_AT_EPOCH": 8586, "BSTAR": 0, "MEAN_MOTION_DOT": 5.9e-07, "MEAN_MOTION_DDOT": 0}, "tle": {"line1": "1 39533U 14008A   25342.72076059  .00000059  00000+0  00000+0 0  9990", "line2": "2 39533  53.6309 157.0886 0079112 226.4438 132.9028  2.00574163 85865"}}, "geometry": {"type": "Point", "coordinates": [-17.916923869701986, -6.7865578412751315]}}, {"type": "Feature", "properties": {"norad_id": 39617, "name": "ASTRA 5B (EGNOS/PRN 123)", "group": "gnss", "lat": -0.06770404220781308, "lon": -84.55448904012036, "alt_km": 35767.78243767129, "timestamp": "2025-12-09T11:33:55.041365+00:00", "meta": {"OBJECT_NAME": "ASTRA 5B (EGNOS/PRN 123)", "OBJECT_ID": "2014-011B", "EPOCH": "2025-12-09T03:24:44.978400", "MEAN_MOTION": 1.00270327, "ECCENTRICITY": 0.0004526, "INCLINATION": 0.0552, "RA_OF_ASC_NODE": 29.637, "ARG_OF_PERICENTER": 232.8502, "MEAN_ANOMALY": 250.3249, "EPHEMERIS_TYPE": 0, "CLASSIFICATION_TYPE": "U", "NORAD_CAT_ID": 39617, "ELEMENT_SET_NO": 999, "REV_AT_EPOCH": 4276, "BSTAR": 0, "MEAN_MOTION_DOT": 1.39e-06, "MEAN_MOTION_DDOT": 0}, "tle": {"line1": "1 39617U 14011B   25343.14218725  .00000139  00000+0  00000+0 0  9991", "line2": "2 39617   0.0552  29.6370 0004526 232.8502 250.3249  1.00270327 42762"}}, "geometry": {"type": "Point", "coordinates": [-84.55448904012036, -0.06770404220781308]}}]}